{"fetched_at":"2026-07-20T07:40:22.620Z","source":"https://celestrak.org/NORAD/elements/gp.php?GROUP=oneweb&FORMAT=JSON","constellation":"oneweb","records":[{"OBJECT_NAME":"ONEWEB-0235","OBJECT_ID":"2021-045E","EPOCH":"2026-07-19T16:20:22.930080","CLASSIFICATION_TYPE":"U","MEAN_MOTION":13.15550012,"ECCENTRICITY":0.0002285,"INCLINATION":87.8989,"RA_OF_ASC_NODE":252.7191,"ARG_OF_PERICENTER":107.5927,"MEAN_ANOMALY":252.5453,"EPHEMERIS_TYPE":0,"NORAD_CAT_ID":48771,"ELEMENT_SET_NO":999,"REV_AT_EPOCH":24865,"BSTAR":0.00028006,"MEAN_MOTION_DOT":0.00000118,"MEAN_MOTION_DDOT":0},{"OBJECT_NAME":"ONEWEB-0242","OBJECT_ID":"2021-045F","EPOCH":"2026-07-19T16:11:17.263104","CLASSIFICATION_TYPE":"U","MEAN_MOTION":13.15548464,"ECCENTRICITY":0.0001956,"INCLINATION":87.8989,"RA_OF_ASC_NODE":252.718,"ARG_OF_PERICENTER":103.7585,"MEAN_ANOMALY":256.3763,"EPHEMERIS_TYPE":0,"NORAD_CAT_ID":48772,"ELEMENT_SET_NO":999,"REV_AT_EPOCH":24869,"BSTAR":0.00021758,"MEAN_MOTION_DOT":9.5e-7,"MEAN_MOTION_DDOT":0},{"OBJECT_NAME":"ONEWEB-0241","OBJECT_ID":"2021-045G","EPOCH":"2026-07-19T14:03:33.513984","CLASSIFICATION_TYPE":"U","MEAN_MOTION":13.15539667,"ECCENTRICITY":0.0002378,"INCLINATION":87.8975,"RA_OF_ASC_NODE":252.7502,"ARG_OF_PERICENTER":103.6126,"MEAN_ANOMALY":256.5269,"EPHEMERIS_TYPE":0,"NORAD_CAT_ID":48773,"ELEMENT_SET_NO":999,"REV_AT_EPOCH":24859,"BSTAR":0.0001263,"MEAN_MOTION_DOT":6e-7,"MEAN_MOTION_DDOT":0},{"OBJECT_NAME":"ONEWEB-0243","OBJECT_ID":"2021-045H","EPOCH":"2026-07-19T20:17:40.889760","CLASSIFICATION_TYPE":"U","MEAN_MOTION":13.15551154,"ECCENTRICITY":0.000191,"INCLINATION":87.898,"RA_OF_ASC_NODE":252.7109,"ARG_OF_PERICENTER":112.5975,"MEAN_ANOMALY":247.5357,"EPHEMERIS_TYPE":0,"NORAD_CAT_ID":48774,"ELEMENT_SET_NO":999,"REV_AT_EPOCH":24865,"BSTAR":-0.000023191,"MEAN_MOTION_DOT":4e-8,"MEAN_MOTION_DDOT":0},{"OBJECT_NAME":"ONEWEB-0222","OBJECT_ID":"2021-045J","EPOCH":"2026-07-19T16:14:42.834624","CLASSIFICATION_TYPE":"U","MEAN_MOTION":13.15575461,"ECCENTRICITY":0.0002215,"INCLINATION":87.8975,"RA_OF_ASC_NODE":252.7147,"ARG_OF_PERICENTER":97.7089,"MEAN_ANOMALY":262.4292,"EPHEMERIS_TYPE":0,"NORAD_CAT_ID":48775,"ELEMENT_SET_NO":999,"REV_AT_EPOCH":24867,"BSTAR":-0.013245,"MEAN_MOTION_DOT":-0.00004973,"MEAN_MOTION_DDOT":0},{"OBJECT_NAME":"ONEWEB-0244","OBJECT_ID":"2021-045K","EPOCH":"2026-07-19T20:31:24.273984","CLASSIFICATION_TYPE":"U","MEAN_MOTION":13.15548325,"ECCENTRICITY":0.0002093,"INCLINATION":87.8994,"RA_OF_ASC_NODE":252.6755,"ARG_OF_PERICENTER":100.4174,"MEAN_ANOMALY":259.7192,"EPHEMERIS_TYPE":0,"NORAD_CAT_ID":48776,"ELEMENT_SET_NO":999,"REV_AT_EPOCH":24926,"BSTAR":-0.00032333,"MEAN_MOTION_DOT":-0.00000109,"MEAN_MOTION_DDOT":0},{"OBJECT_NAME":"ONEWEB-0247","OBJECT_ID":"2021-045L","EPOCH":"2026-07-19T20:26:48.797088","CLASSIFICATION_TYPE":"U","MEAN_MOTION":13.1554685,"ECCENTRICITY":0.0002235,"INCLINATION":87.8983,"RA_OF_ASC_NODE":252.704,"ARG_OF_PERICENTER":119.0476,"MEAN_ANOMALY":241.0879,"EPHEMERIS_TYPE":0,"NORAD_CAT_ID":48777,"ELEMENT_SET_NO":999,"REV_AT_EPOCH":24870,"BSTAR":-0.00018906,"MEAN_MOTION_DOT":-5.8e-7,"MEAN_MOTION_DDOT":0},{"OBJECT_NAME":"ONEWEB-0245","OBJECT_ID":"2021-045M","EPOCH":"2026-07-19T20:19:58.279584","CLASSIFICATION_TYPE":"U","MEAN_MOTION":13.15549543,"ECCENTRICITY":0.0002226,"INCLINATION":87.8989,"RA_OF_ASC_NODE":252.6871,"ARG_OF_PERICENTER":97.7755,"MEAN_ANOMALY":262.3628,"EPHEMERIS_TYPE":0,"NORAD_CAT_ID":48778,"ELEMENT_SET_NO":999,"REV_AT_EPOCH":24867,"BSTAR":-0.000061455,"MEAN_MOTION_DOT":-1e-7,"MEAN_MOTION_DDOT":0},{"OBJECT_NAME":"ONEWEB-0229","OBJECT_ID":"2021-045N","EPOCH":"2026-07-19T20:13:09.007104","CLASSIFICATION_TYPE":"U","MEAN_MOTION":13.15548068,"ECCENTRICITY":0.0001984,"INCLINATION":87.8988,"RA_OF_ASC_NODE":252.6859,"ARG_OF_PERICENTER":100.402,"MEAN_ANOMALY":259.7334,"EPHEMERIS_TYPE":0,"NORAD_CAT_ID":48779,"ELEMENT_SET_NO":999,"REV_AT_EPOCH":24870,"BSTAR":0.00013312,"MEAN_MOTION_DOT":6.3e-7,"MEAN_MOTION_DDOT":0},{"OBJECT_NAME":"ONEWEB-0228","OBJECT_ID":"2021-045P","EPOCH":"2026-07-19T04:35:32.867232","CLASSIFICATION_TYPE":"U","MEAN_MOTION":13.15548752,"ECCENTRICITY":0.00021594,"INCLINATION":87.8993,"RA_OF_ASC_NODE":252.8102,"ARG_OF_PERICENTER":100.8641,"MEAN_ANOMALY":259.2733,"EPHEMERIS_TYPE":0,"NORAD_CAT_ID":48780,"ELEMENT_SET_NO":999,"REV_AT_EPOCH":24853,"BSTAR":-0.000091445031,"MEAN_MOTION_DOT":-2.2e-7,"MEAN_MOTION_DDOT":0},{"OBJECT_NAME":"ONEWEB-0232","OBJECT_ID":"2021-045Q","EPOCH":"2026-07-19T16:45:31.135392","CLASSIFICATION_TYPE":"U","MEAN_MOTION":13.15547517,"ECCENTRICITY":0.0002183,"INCLINATION":87.8989,"RA_OF_ASC_NODE":252.7086,"ARG_OF_PERICENTER":97.6952,"MEAN_ANOMALY":262.4426,"EPHEMERIS_TYPE":0,"NORAD_CAT_ID":48781,"ELEMENT_SET_NO":999,"REV_AT_EPOCH":24892,"BSTAR":-0.00010181,"MEAN_MOTION_DOT":-2.5e-7,"MEAN_MOTION_DDOT":0},{"OBJECT_NAME":"ONEWEB-0231","OBJECT_ID":"2021-045R","EPOCH":"2026-07-19T16:13:34.227840","CLASSIFICATION_TYPE":"U","MEAN_MOTION":13.15550415,"ECCENTRICITY":0.0002331,"INCLINATION":87.8982,"RA_OF_ASC_NODE":252.725,"ARG_OF_PERICENTER":100.4138,"MEAN_ANOMALY":259.7255,"EPHEMERIS_TYPE":0,"NORAD_CAT_ID":48782,"ELEMENT_SET_NO":999,"REV_AT_EPOCH":24861,"BSTAR":-0.00022652,"MEAN_MOTION_DOT":-7.2e-7,"MEAN_MOTION_DDOT":0},{"OBJECT_NAME":"ONEWEB-0234","OBJECT_ID":"2021-045S","EPOCH":"2026-07-19T04:21:28.565568","CLASSIFICATION_TYPE":"U","MEAN_MOTION":13.15547818,"ECCENTRICITY":0.00026624,"INCLINATION":87.8994,"RA_OF_ASC_NODE":252.8059,"ARG_OF_PERICENTER":82.8851,"MEAN_ANOMALY":277.2582,"EPHEMERIS_TYPE":0,"NORAD_CAT_ID":48783,"ELEMENT_SET_NO":999,"REV_AT_EPOCH":24868,"BSTAR":-0.00015768926,"MEAN_MOTION_DOT":-4.7e-7,"MEAN_MOTION_DDOT":0},{"OBJECT_NAME":"ONEWEB-0238","OBJECT_ID":"2021-045T","EPOCH":"2026-07-19T09:50:24.726624","CLASSIFICATION_TYPE":"U","MEAN_MOTION":13.1554859,"ECCENTRICITY":0.00023399,"INCLINATION":87.8995,"RA_OF_ASC_NODE":252.7569,"ARG_OF_PERICENTER":88.6413,"MEAN_ANOMALY":271.4985,"EPHEMERIS_TYPE":0,"NORAD_CAT_ID":48784,"ELEMENT_SET_NO":999,"REV_AT_EPOCH":24861,"BSTAR":-0.00041181819,"MEAN_MOTION_DOT":-0.00000142,"MEAN_MOTION_DDOT":0},{"OBJECT_NAME":"ONEWEB-0240","OBJECT_ID":"2021-045U","EPOCH":"2026-07-19T04:52:27.628320","CLASSIFICATION_TYPE":"U","MEAN_MOTION":13.15549109,"ECCENTRICITY":0.00023732,"INCLINATION":87.899,"RA_OF_ASC_NODE":252.8073,"ARG_OF_PERICENTER":101.1317,"MEAN_ANOMALY":259.0081,"EPHEMERIS_TYPE":0,"NORAD_CAT_ID":48785,"ELEMENT_SET_NO":999,"REV_AT_EPOCH":24861,"BSTAR":0.00032177687,"MEAN_MOTION_DOT":0.00000134,"MEAN_MOTION_DDOT":0},{"OBJECT_NAME":"ONEWEB-0246","OBJECT_ID":"2021-045V","EPOCH":"2026-07-19T10:13:03.380448","CLASSIFICATION_TYPE":"U","MEAN_MOTION":13.15547879,"ECCENTRICITY":0.00020119,"INCLINATION":87.8989,"RA_OF_ASC_NODE":252.7664,"ARG_OF_PERICENTER":99.1669,"MEAN_ANOMALY":260.9688,"EPHEMERIS_TYPE":0,"NORAD_CAT_ID":48786,"ELEMENT_SET_NO":999,"REV_AT_EPOCH":24851,"BSTAR":0.000075913892,"MEAN_MOTION_DOT":4.1e-7,"MEAN_MOTION_DDOT":0},{"OBJECT_NAME":"ONEWEB-0210","OBJECT_ID":"2021-045W","EPOCH":"2026-07-19T16:54:38.228832","CLASSIFICATION_TYPE":"U","MEAN_MOTION":13.15548505,"ECCENTRICITY":0.0001963,"INCLINATION":87.8989,"RA_OF_ASC_NODE":252.7084,"ARG_OF_PERICENTER":121.6634,"MEAN_ANOMALY":238.4688,"EPHEMERIS_TYPE":0,"NORAD_CAT_ID":48787,"ELEMENT_SET_NO":999,"REV_AT_EPOCH":24859,"BSTAR":-0.00029585,"MEAN_MOTION_DOT":-9.9e-7,"MEAN_MOTION_DDOT":0},{"OBJECT_NAME":"ONEWEB-0214","OBJECT_ID":"2021-045X","EPOCH":"2026-07-19T13:28:07.908096","CLASSIFICATION_TYPE":"U","MEAN_MOTION":13.15546888,"ECCENTRICITY":0.0001742,"INCLINATION":87.8991,"RA_OF_ASC_NODE":252.7342,"ARG_OF_PERICENTER":101.9953,"MEAN_ANOMALY":258.1372,"EPHEMERIS_TYPE":0,"NORAD_CAT_ID":48788,"ELEMENT_SET_NO":999,"REV_AT_EPOCH":24854,"BSTAR":-0.00040449,"MEAN_MOTION_DOT":-0.00000139,"MEAN_MOTION_DDOT":0},{"OBJECT_NAME":"ONEWEB-0221","OBJECT_ID":"2021-045Y","EPOCH":"2026-07-19T13:38:24.864576","CLASSIFICATION_TYPE":"U","MEAN_MOTION":13.15548172,"ECCENTRICITY":0.0002169,"INCLINATION":87.8989,"RA_OF_ASC_NODE":252.7411,"ARG_OF_PERICENTER":101.363,"MEAN_ANOMALY":258.7744,"EPHEMERIS_TYPE":0,"NORAD_CAT_ID":48789,"ELEMENT_SET_NO":999,"REV_AT_EPOCH":24863,"BSTAR":-0.00025476,"MEAN_MOTION_DOT":-8.3e-7,"MEAN_MOTION_DDOT":0},{"OBJECT_NAME":"ONEWEB-0213","OBJECT_ID":"2021-045Z","EPOCH":"2026-07-19T13:22:26.213376","CLASSIFICATION_TYPE":"U","MEAN_MOTION":13.15548437,"ECCENTRICITY":0.0002142,"INCLINATION":87.8989,"RA_OF_ASC_NODE":252.7462,"ARG_OF_PERICENTER":105.1363,"MEAN_ANOMALY":255.0005,"EPHEMERIS_TYPE":0,"NORAD_CAT_ID":48790,"ELEMENT_SET_NO":999,"REV_AT_EPOCH":24869,"BSTAR":-0.00040201,"MEAN_MOTION_DOT":-0.00000139,"MEAN_MOTION_DDOT":0},{"OBJECT_NAME":"ONEWEB-0212","OBJECT_ID":"2021-045AA","EPOCH":"2026-07-19T20:07:26.077728","CLASSIFICATION_TYPE":"U","MEAN_MOTION":13.15547944,"ECCENTRICITY":0.0002046,"INCLINATION":87.8989,"RA_OF_ASC_NODE":252.6844,"ARG_OF_PERICENTER":96.7145,"MEAN_ANOMALY":263.4218,"EPHEMERIS_TYPE":0,"NORAD_CAT_ID":48791,"ELEMENT_SET_NO":999,"REV_AT_EPOCH":24872,"BSTAR":0.00031914,"MEAN_MOTION_DOT":0.00000133,"MEAN_MOTION_DDOT":0},{"OBJECT_NAME":"ONEWEB-0227","OBJECT_ID":"2021-045AB","EPOCH":"2026-07-19T16:27:15.575616","CLASSIFICATION_TYPE":"U","MEAN_MOTION":13.15547982,"ECCENTRICITY":0.0002095,"INCLINATION":87.8989,"RA_OF_ASC_NODE":252.715,"ARG_OF_PERICENTER":98.823,"MEAN_ANOMALY":261.3138,"EPHEMERIS_TYPE":0,"NORAD_CAT_ID":48792,"ELEMENT_SET_NO":999,"REV_AT_EPOCH":24865,"BSTAR":0.00008873,"MEAN_MOTION_DOT":4.6e-7,"MEAN_MOTION_DDOT":0},{"OBJECT_NAME":"ONEWEB-0226","OBJECT_ID":"2021-045AC","EPOCH":"2026-07-19T16:18:07.929216","CLASSIFICATION_TYPE":"U","MEAN_MOTION":13.15548059,"ECCENTRICITY":0.0002007,"INCLINATION":87.8986,"RA_OF_ASC_NODE":252.7207,"ARG_OF_PERICENTER":104.239,"MEAN_ANOMALY":255.8963,"EPHEMERIS_TYPE":0,"NORAD_CAT_ID":48793,"ELEMENT_SET_NO":999,"REV_AT_EPOCH":24862,"BSTAR":0.0002148,"MEAN_MOTION_DOT":9.4e-7,"MEAN_MOTION_DDOT":0}]}
